[{"OBJECT_NAME":"NETSAT-1","OBJECT_ID":"2020-068W","EPOCH":"2026-03-09T22:42:38.711232","MEAN_MOTION":15.32042482,"ECCENTRICITY":0.00057337,"INCLINATION":97.8751,"RA_OF_ASC_NODE":63.2583,"ARG_OF_PERICENTER":18.5877,"MEAN_ANOMALY":341.5572,"EPHEMERIS_TYPE":0,"CLASSIFICATION_TYPE":"U","NORAD_CAT_ID":46506,"ELEMENT_SET_NO":999,"REV_AT_EPOCH":30009,"BSTAR":0.00059222329,"MEAN_MOTION_DOT":0.00018269,"MEAN_MOTION_DDOT":0},{"OBJECT_NAME":"STARLINK-31014","OBJECT_ID":"2023-192H","EPOCH":"2026-03-09T07:01:53.411520","MEAN_MOTION":15.30210233,"ECCENTRICITY":0.00018261,"INCLINATION":53.1595,"RA_OF_ASC_NODE":64.6517,"ARG_OF_PERICENTER":62.533,"MEAN_ANOMALY":297.5856,"EPHEMERIS_TYPE":0,"CLASSIFICATION_TYPE":"U","NORAD_CAT_ID":58538,"ELEMENT_SET_NO":999,"REV_AT_EPOCH":12592,"BSTAR":-5.3852695e-5,"MEAN_MOTION_DOT":-1.955e-5,"MEAN_MOTION_DDOT":0}]
